start=new Date('2022-07-16T00:00:00.000Z').valueOf();
sats=[{"MEAN_ANOMALY":"298.5082","EPHEMERIS_TYPE":"0","TLE_LINE1":"1 50819U 22001S   22196.81998435  .00001806  00000-0  13149-3 0  9991","REF_FRAME":"TEME","MEAN_MOTION":"15.08847162","CLASSIFICATION_TYPE":"U","TLE_LINE2":"2 50819  53.2199  32.5951 0001278  61.6039 298.5082 15.08847162 29199","RCS_SIZE":"LARGE","CENTER_NAME":"EARTH","ECCENTRICITY":"0.00012780","MEAN_ELEMENT_THEORY":"SGP4","COUNTRY_CODE":"US","APOAPSIS":"540.608","RA_OF_ASC_NODE":"32.5951","OBJECT_NAME":"STARLINK-3327","GP_ID":"208204961","NORAD_CAT_ID":"50819","BSTAR":"0.00013149000000","EPOCH":"2022-07-15T19:40:46.647840","SEMIMAJOR_AXIS":"6917.858","INCLINATION":"53.2199","FILE":"3514839","DECAY_DATE":null,"OBJECT_TYPE":"PAYLOAD","PERIAPSIS":"538.839","SITE":"AFETR","ARG_OF_PERICENTER":"61.6039","ELEMENT_SET_NO":"999","PERIOD":"95.437","LAUNCH_DATE":"2022-01-06","REV_AT_EPOCH":"2919","TIME_SYSTEM":"UTC","MEAN_MOTION_DDOT":"0.0000000000000","OBJECT_ID":"2022-001S","MEAN_MOTION_DOT":"0.00001806"},{"NORAD_CAT_ID":"50820","BSTAR":"0.00013860000000","CENTER_NAME":"EARTH","ECCENTRICITY":"0.00018820","COUNTRY_CODE":"US","MEAN_ELEMENT_THEORY":"SGP4","APOAPSIS":"541.052","RA_OF_ASC_NODE":"32.3987","OBJECT_NAME":"STARLINK-3339","GP_ID":"208205212","TLE_LINE2":"2 50820  53.2185  32.3987 0001882  59.9314 300.1865 15.08838575 29197","RCS_SIZE":"LARGE","MEAN_ANOMALY":"300.1865","EPHEMERIS_TYPE":"0","TLE_LINE1":"1 50820U 22001T   22196.86784398  .00001918  00000-0  13860-3 0  9993","REF_FRAME":"TEME","MEAN_MOTION":"15.08838575","CLASSIFICATION_TYPE":"U","LAUNCH_DATE":"2022-01-06","REV_AT_EPOCH":"2919","TIME_SYSTEM":"UTC","MEAN_MOTION_DDOT":"0.0000000000000","OBJECT_ID":"2022-001T","MEAN_MOTION_DOT":"0.00001918","SITE":"AFETR","ELEMENT_SET_NO":"999","ARG_OF_PERICENTER":"59.9314","PERIOD":"95.438","FILE":"3514839","INCLINATION":"53.2185","DECAY_DATE":null,"PERIAPSIS":"538.448","OBJECT_TYPE":"PAYLOAD","EPOCH":"2022-07-15T20:49:41.719872","SEMIMAJOR_AXIS":"6917.885"},{"CLASSIFICATION_TYPE":"U","REF_FRAME":"TEME","MEAN_MOTION":"15.08838238","TLE_LINE1":"1 50821U 22001U   22196.85311762  .00002170  00000-0  15440-3 0  9991","EPHEMERIS_TYPE":"0","MEAN_ANOMALY":"301.5935","RCS_SIZE":"LARGE","TLE_LINE2":"2 50821  53.2181  32.4725 0001521  58.5206 301.5935 15.08838238 29199","GP_ID":"208203960","OBJECT_NAME":"STARLINK-3346","RA_OF_ASC_NODE":"32.4725","COUNTRY_CODE":"US","MEAN_ELEMENT_THEORY":"SGP4","APOAPSIS":"540.803","ECCENTRICITY":"0.00015210","CENTER_NAME":"EARTH","BSTAR":"0.00015440000000","NORAD_CAT_ID":"50821","EPOCH":"2022-07-15T20:28:29.362368","SEMIMAJOR_AXIS":"6917.886","OBJECT_TYPE":"PAYLOAD","PERIAPSIS":"538.699","DECAY_DATE":null,"INCLINATION":"53.2181","FILE":"3514839","PERIOD":"95.438","SITE":"AFETR","ELEMENT_SET_NO":"999","ARG_OF_PERICENTER":"58.5206","OBJECT_ID":"2022-001U","MEAN_MOTION_DOT":"0.00002170","TIME_SYSTEM":"UTC","MEAN_MOTION_DDOT":"0.0000000000000","LAUNCH_DATE":"2022-01-06","REV_AT_EPOCH":"2919"},{"MEAN_ANOMALY":"295.1389","TLE_LINE1":"1 50822U 22001V   22196.86047877  .00000328  00000-0  38696-4 0  9998","EPHEMERIS_TYPE":"0","MEAN_MOTION":"15.08830791","REF_FRAME":"TEME","CLASSIFICATION_TYPE":"U","TLE_LINE2":"2 50822  53.2181  32.4391 0001629  64.9772 295.1389 15.08830791 29194","RCS_SIZE":"LARGE","ECCENTRICITY":"0.00016290","CENTER_NAME":"EARTH","APOAPSIS":"540.900","COUNTRY_CODE":"US","MEAN_ELEMENT_THEORY":"SGP4","RA_OF_ASC_NODE":"32.4391","GP_ID":"208204210","OBJECT_NAME":"STARLINK-3343","NORAD_CAT_ID":"50822","BSTAR":"0.00003869600000","SEMIMAJOR_AXIS":"6917.909","EPOCH":"2022-07-15T20:39:05.365728","FILE":"3514839","INCLINATION":"53.2181","DECAY_DATE":null,"OBJECT_TYPE":"PAYLOAD","PERIAPSIS":"538.647","ELEMENT_SET_NO":"999","ARG_OF_PERICENTER":"64.9772","SITE":"AFETR","PERIOD":"95.438","REV_AT_EPOCH":"2919","LAUNCH_DATE":"2022-01-06","MEAN_MOTION_DDOT":"0.0000000000000","TIME_SYSTEM":"UTC","MEAN_MOTION_DOT":"0.00000328","OBJECT_ID":"2022-001V"},{"LAUNCH_DATE":"2022-01-06","REV_AT_EPOCH":"2919","TIME_SYSTEM":"UTC","MEAN_MOTION_DDOT":"0.0000000000000","OBJECT_ID":"2022-001W","MEAN_MOTION_DOT":"0.00002062","SITE":"AFETR","ELEMENT_SET_NO":"999","ARG_OF_PERICENTER":"81.0384","PERIOD":"95.437","INCLINATION":"53.2204","FILE":"3514839","DECAY_DATE":null,"OBJECT_TYPE":"PAYLOAD","PERIAPSIS":"538.783","EPOCH":"2022-07-15T19:51:22.874976","SEMIMAJOR_AXIS":"6917.864","NORAD_CAT_ID":"50823","BSTAR":"0.00014761000000","ECCENTRICITY":"0.00013670","CENTER_NAME":"EARTH","COUNTRY_CODE":"US","MEAN_ELEMENT_THEORY":"SGP4","APOAPSIS":"540.674","RA_OF_ASC_NODE":"32.5643","GP_ID":"208204461","OBJECT_NAME":"STARLINK-3334","TLE_LINE2":"2 50823  53.2204  32.5643 0001367  81.0384 279.0763 15.08845453 29198","RCS_SIZE":"LARGE","MEAN_ANOMALY":"279.0763","EPHEMERIS_TYPE":"0","TLE_LINE1":"1 50823U 22001W   22196.82734809  .00002062  00000-0  14761-3 0  9996","REF_FRAME":"TEME","MEAN_MOTION":"15.08845453","CLASSIFICATION_TYPE":"U"},{"MEAN_MOTION_DDOT":"0.0000000000000","TIME_SYSTEM":"UTC","MEAN_MOTION_DOT":"0.00006327","OBJECT_ID":"2022-001X","REV_AT_EPOCH":"2919","LAUNCH_DATE":"2022-01-06","ELEMENT_SET_NO":"999","ARG_OF_PERICENTER":"68.7799","SITE":"AFETR","PERIOD":"95.437","DECAY_DATE":null,"PERIAPSIS":"538.776","OBJECT_TYPE":"PAYLOAD","FILE":"3514839","INCLINATION":"53.2166","SEMIMAJOR_AXIS":"6917.846","EPOCH":"2022-07-15T20:33:46.595520","NORAD_CAT_ID":"50824","BSTAR":"0.00041512000000","RA_OF_ASC_NODE":"32.4536","OBJECT_NAME":"STARLINK-3340","GP_ID":"208204712","CENTER_NAME":"EARTH","ECCENTRICITY":"0.00013510","APOAPSIS":"540.645","MEAN_ELEMENT_THEORY":"SGP4","COUNTRY_CODE":"US","TLE_LINE2":"2 50824  53.2166  32.4536 0001351  68.7799 291.3337 15.08851348 29195","RCS_SIZE":"LARGE","MEAN_MOTION":"15.08851348","REF_FRAME":"TEME","CLASSIFICATION_TYPE":"U","MEAN_ANOMALY":"291.3337","TLE_LINE1":"1 50824U 22001X   22196.85678930  .00006327  00000-0  41512-3 0  9994","EPHEMERIS_TYPE":"0"},{"RCS_SIZE":"LARGE","TLE_LINE2":"2 50825  53.2196  32.4200 0001596  59.9891 300.1259 15.08838119 29196","CLASSIFICATION_TYPE":"U","REF_FRAME":"TEME","MEAN_MOTION":"15.08838119","TLE_LINE1":"1 50825U 22001Y   22196.86415578  .00001735  00000-0  12710-3 0  9999","EPHEMERIS_TYPE":"0","MEAN_ANOMALY":"300.1259","BSTAR":"0.00012710000000","NORAD_CAT_ID":"50825","GP_ID":"208203460","OBJECT_NAME":"STARLINK-3332","RA_OF_ASC_NODE":"32.4200","COUNTRY_CODE":"US","MEAN_ELEMENT_THEORY":"SGP4","APOAPSIS":"540.855","ECCENTRICITY":"0.00015960","CENTER_NAME":"EARTH","OBJECT_TYPE":"PAYLOAD","PERIAPSIS":"538.647","DECAY_DATE":null,"FILE":"3514839","INCLINATION":"53.2196","EPOCH":"2022-07-15T20:44:23.059392","SEMIMAJOR_AXIS":"6917.886","OBJECT_ID":"2022-001Y","MEAN_MOTION_DOT":"0.00001735","TIME_SYSTEM":"UTC","MEAN_MOTION_DDOT":"0.0000000000000","LAUNCH_DATE":"2022-01-06","REV_AT_EPOCH":"2919","PERIOD":"95.438","SITE":"AFETR","ARG_OF_PERICENTER":"59.9891","ELEMENT_SET_NO":"999"},{"GP_ID":"208203710","OBJECT_NAME":"STARLINK-3337","RA_OF_ASC_NODE":"32.4942","MEAN_ELEMENT_THEORY":"SGP4","COUNTRY_CODE":"US","APOAPSIS":"541.003","ECCENTRICITY":"0.00017820","CENTER_NAME":"EARTH","BSTAR":"0.00003034400000","NORAD_CAT_ID":"50826","CLASSIFICATION_TYPE":"U","REF_FRAME":"TEME","MEAN_MOTION":"15.08831734","EPHEMERIS_TYPE":"0","TLE_LINE1":"1 50826U 22001Z   22196.84207712  .00000195  00000-0  30344-4 0  9990","MEAN_ANOMALY":"295.7693","RCS_SIZE":"LARGE","TLE_LINE2":"2 50826  53.2182  32.4942 0001782  64.3484 295.7693 15.08831734 29197","PERIOD":"95.438","SITE":"AFETR","ELEMENT_SET_NO":"999","ARG_OF_PERICENTER":"64.3484","OBJECT_ID":"2022-001Z","MEAN_MOTION_DOT":"0.00000195","TIME_SYSTEM":"UTC","MEAN_MOTION_DDOT":"0.0000000000000","LAUNCH_DATE":"2022-01-06","REV_AT_EPOCH":"2919","EPOCH":"2022-07-15T20:12:35.463168","SEMIMAJOR_AXIS":"6917.906","OBJECT_TYPE":"PAYLOAD","PERIAPSIS":"538.538","DECAY_DATE":null,"FILE":"3514839","INCLINATION":"53.2182"},{"CLASSIFICATION_TYPE":"U","MEAN_MOTION":"15.08848517","REF_FRAME":"TEME","EPHEMERIS_TYPE":"0","TLE_LINE1":"1 50827U 22001AA  22196.80894334  .00002528  00000-0  17681-3 0  9999","MEAN_ANOMALY":"289.9854","RCS_SIZE":"LARGE","TLE_LINE2":"2 50827  53.2177  32.6677 0001462  70.1295 289.9854 15.08848517 29189","OBJECT_NAME":"STARLINK-3329","GP_ID":"208204962","RA_OF_ASC_NODE":"32.6677","APOAPSIS":"540.731","MEAN_ELEMENT_THEORY":"SGP4","COUNTRY_CODE":"US","ECCENTRICITY":"0.00014620","CENTER_NAME":"EARTH","BSTAR":"0.00017681000000","NORAD_CAT_ID":"50827","SEMIMAJOR_AXIS":"6917.854","EPOCH":"2022-07-15T19:24:52.704576","OBJECT_TYPE":"PAYLOAD","PERIAPSIS":"538.708","DECAY_DATE":null,"INCLINATION":"53.2177","FILE":"3514839","PERIOD":"95.437","ARG_OF_PERICENTER":"70.1295","ELEMENT_SET_NO":"999","SITE":"AFETR","MEAN_MOTION_DOT":"0.00002528","OBJECT_ID":"2022-001AA","MEAN_MOTION_DDOT":"0.0000000000000","TIME_SYSTEM":"UTC","REV_AT_EPOCH":"2918","LAUNCH_DATE":"2022-01-06"},{"DECAY_DATE":null,"OBJECT_TYPE":"PAYLOAD","PERIAPSIS":"538.738","INCLINATION":"53.2159","FILE":"3514839","SEMIMAJOR_AXIS":"6917.840","EPOCH":"2022-07-15T19:20:58.219296","MEAN_MOTION_DDOT":"0.0000000000000","TIME_SYSTEM":"UTC","MEAN_MOTION_DOT":"0.00010490","OBJECT_ID":"2022-001AB","REV_AT_EPOCH":"2903","LAUNCH_DATE":"2022-01-06","ARG_OF_PERICENTER":"65.6756","ELEMENT_SET_NO":"999","SITE":"AFETR","PERIOD":"95.437","TLE_LINE2":"2 50828  53.2159  32.6797 0001398  65.6756 294.4381 15.08853253 29035","RCS_SIZE":"LARGE","MEAN_MOTION":"15.08853253","REF_FRAME":"TEME","CLASSIFICATION_TYPE":"U","MEAN_ANOMALY":"294.4381","EPHEMERIS_TYPE":"0","TLE_LINE1":"1 50828U 22001AB  22196.80622939  .00010490  00000-0  67598-3 0  9999","NORAD_CAT_ID":"50828","BSTAR":"0.00067598000000","RA_OF_ASC_NODE":"32.6797","GP_ID":"208205213","OBJECT_NAME":"STARLINK-3290","ECCENTRICITY":"0.00013980","CENTER_NAME":"EARTH","APOAPSIS":"540.672","MEAN_ELEMENT_THEORY":"SGP4","COUNTRY_CODE":"US"}];
